[{"OBJECT_NAME":"XINGCHI-1 02B","OBJECT_ID":"2023-187C","EPOCH":"2026-03-09T22:36:06.861312","MEAN_MOTION":14.854851,"ECCENTRICITY":0.00120604,"INCLINATION":97.9317,"RA_OF_ASC_NODE":153.3872,"ARG_OF_PERICENTER":104.6634,"MEAN_ANOMALY":255.5919,"EPHEMERIS_TYPE":0,"CLASSIFICATION_TYPE":"U","NORAD_CAT_ID":58498,"ELEMENT_SET_NO":999,"REV_AT_EPOCH":12244,"BSTAR":0.00027337967,"MEAN_MOTION_DOT":2.307e-5,"MEAN_MOTION_DDOT":0},{"OBJECT_NAME":"PSLV R\/B","OBJECT_ID":"2015-032F","EPOCH":"2026-03-09T21:07:29.271360","MEAN_MOTION":14.8642432,"ECCENTRICITY":0.00058037,"INCLINATION":98.1819,"RA_OF_ASC_NODE":36.049,"ARG_OF_PERICENTER":63.1475,"MEAN_ANOMALY":297.0333,"EPHEMERIS_TYPE":0,"CLASSIFICATION_TYPE":"U","NORAD_CAT_ID":40720,"ELEMENT_SET_NO":999,"REV_AT_EPOCH":57654,"BSTAR":0.00019704626,"MEAN_MOTION_DOT":1.682e-5,"MEAN_MOTION_DDOT":0}]
